[{"OBJECT_NAME":"STARLINK-1362","OBJECT_ID":"2020-025H","EPOCH":"2026-03-09T11:02:25.448928","MEAN_MOTION":15.30206066,"ECCENTRICITY":0.00013706,"INCLINATION":53.1615,"RA_OF_ASC_NODE":102.0656,"ARG_OF_PERICENTER":93.096,"MEAN_ANOMALY":267.0198,"EPHEMERIS_TYPE":0,"CLASSIFICATION_TYPE":"U","NORAD_CAT_ID":45538,"ELEMENT_SET_NO":999,"REV_AT_EPOCH":32514,"BSTAR":5.6519661e-5,"MEAN_MOTION_DOT":1.315e-5,"MEAN_MOTION_DDOT":0},{"OBJECT_NAME":"CERISE","OBJECT_ID":"1995-033B","EPOCH":"2026-03-09T23:11:27.589056","MEAN_MOTION":15.32047731,"ECCENTRICITY":0.00057118,"INCLINATION":98.325,"RA_OF_ASC_NODE":273.5192,"ARG_OF_PERICENTER":211.8754,"MEAN_ANOMALY":148.214,"EPHEMERIS_TYPE":0,"CLASSIFICATION_TYPE":"U","NORAD_CAT_ID":23606,"ELEMENT_SET_NO":999,"REV_AT_EPOCH":66468,"BSTAR":0.00062940675,"MEAN_MOTION_DOT":0.00019422,"MEAN_MOTION_DDOT":0}]
